{"type": "FeatureCollection", "features": [ {"type": "Feature", "properties": {"norad_id": 33917, "name": "COSMOS 2251 DEB", "group": "cosmos-2251-debris", "lat": -65.52913562810188, "lon": -12.5485095281024, "alt_km": 779.0438278784313, "timestamp": "2025-12-08T21:31:05.059482+00:00", "meta": {"OBJECT_NAME": "COSMOS 2251 DEB", "OBJECT_ID": "1993-036DW", "EPOCH": "2025-12-08T02:45:14.193504", "MEAN_MOTION": 13.69346585, "ECCENTRICITY": 0.03311868, "INCLINATION": 74.1067, "RA_OF_ASC_NODE": 129.9767, "ARG_OF_PERICENTER": 231.9482, "MEAN_ANOMALY": 125.1328, "EPHEMERIS_TYPE": 0, "CLASSIFICATION_TYPE": "U", "NORAD_CAT_ID": 33917, "ELEMENT_SET_NO": 999, "REV_AT_EPOCH": 83670, "BSTAR": 0.00098423796, "MEAN_MOTION_DOT": 1.233e-05, "MEAN_MOTION_DDOT": 0}, "tle": {"line1": "1 33917U 93036DW  25342.11474761  .00001233  00000+0  98424-3 0  9999", "line2": "2 33917  74.1067 129.9767 0331186 231.9482 125.1328 13.69346585836708"}}, "geometry": {"type": "Point", "coordinates": [-12.5485095281024, -65.52913562810188]}}, {"type": "Feature", "properties": {"norad_id": 33920, "name": "COSMOS 2251 DEB", "group": "cosmos-2251-debris", "lat": -2.986492139027783, "lon": 126.58173404990075, "alt_km": 719.50681127589, "timestamp": "2025-12-08T21:31:05.059492+00:00", "meta": {"OBJECT_NAME": "COSMOS 2251 DEB", "OBJECT_ID": "1993-036DZ", "EPOCH": "2025-12-08T07:30:21.252672", "MEAN_MOTION": 14.58148618, "ECCENTRICITY": 0.00384806, "INCLINATION": 74.0601, "RA_OF_ASC_NODE": 306.8361, "ARG_OF_PERICENTER": 314.0622, "MEAN_ANOMALY": 45.7376, "EPHEMERIS_TYPE": 0, "CLASSIFICATION_TYPE": "U", "NORAD_CAT_ID": 33920, "ELEMENT_SET_NO": 999, "REV_AT_EPOCH": 88050, "BSTAR": 0.0027054307, "MEAN_MOTION_DOT": 0.00012592, "MEAN_MOTION_DDOT": 0}, "tle": {"line1": "1 33920U 93036DZ  25342.31274598  .00012592  00000+0  27054-2 0  9991", "line2": "2 33920  74.0601 306.8361 0038480 314.0622  45.7376 14.58148618880504"}}, "geometry": {"type": "Point", "coordinates": [126.58173404990075, -2.986492139027783]}}, {"type": "Feature", "properties": {"norad_id": 33922, "name": "COSMOS 2251 DEB", "group": "cosmos-2251-debris", "lat": 73.51629446527755, "lon": -129.8540425279891, "alt_km": 736.4734470846588, "timestamp": "2025-12-08T21:31:05.059502+00:00", "meta": {"OBJECT_NAME": "COSMOS 2251 DEB", "OBJECT_ID": "1993-036EB", "EPOCH": "2025-12-08T13:09:34.926624", "MEAN_MOTION": 14.49485492, "ECCENTRICITY": 0.00232774, "INCLINATION": 74.0464, "RA_OF_ASC_NODE": 155.622, "ARG_OF_PERICENTER": 266.72, "MEAN_ANOMALY": 162.5628, "EPHEMERIS_TYPE": 0, "CLASSIFICATION_TYPE": "U", "NORAD_CAT_ID": 33922, "ELEMENT_SET_NO": 999, "REV_AT_EPOCH": 88517, "BSTAR": 0.00081498344, "MEAN_MOTION_DOT": 3.107e-05, "MEAN_MOTION_DDOT": 0}, "tle": {"line1": "1 33922U 93036EB  25342.54832091  .00003107  00000+0  81498-3 0  9991", "line2": "2 33922  74.0464 155.6220 0023277 266.7200 162.5628 14.49485492885170"}}, "geometry": {"type": "Point", "coordinates": [-129.8540425279891, 73.51629446527755]}}, {"type": "Feature", "properties": {"norad_id": 33924, "name": "COSMOS 2251 DEB", "group": "cosmos-2251-debris", "lat": -49.32267745132847, "lon": -103.23729835339816, "alt_km": 777.7782976275257, "timestamp": "2025-12-08T21:31:05.059512+00:00", "meta": {"OBJECT_NAME": "COSMOS 2251 DEB", "OBJECT_ID": "1993-036ED", "EPOCH": "2025-12-08T05:45:15.708096", "MEAN_MOTION": 13.50212784, "ECCENTRICITY": 0.04040634, "INCLINATION": 73.9143, "RA_OF_ASC_NODE": 277.4345, "ARG_OF_PERICENTER": 313.6796, "MEAN_ANOMALY": 43.1469, "EPHEMERIS_TYPE": 0, "CLASSIFICATION_TYPE": "U", "NORAD_CAT_ID": 33924, "ELEMENT_SET_NO": 999, "REV_AT_EPOCH": 82678, "BSTAR": 0.0018170896, "MEAN_MOTION_DOT": 1.904e-05, "MEAN_MOTION_DDOT": 0}, "tle": {"line1": "1 33924U 93036ED  25342.23976514  .00001904  00000+0  18171-2 0  9998", "line2": "2 33924  73.9143 277.4345 0404063 313.6796  43.1469 13.50212784826785"}}, "geometry": {"type": "Point", "coordinates": [-103.23729835339816, -49.32267745132847]}}, {"type": "Feature", "properties": {"norad_id": 33928, "name": "COSMOS 2251 DEB", "group": "cosmos-2251-debris", "lat": -40.136871359910295, "lon": 45.73039706477714, "alt_km": 705.334834100001, "timestamp": "2025-12-08T21:31:05.059523+00:00", "meta": {"OBJECT_NAME": "COSMOS 2251 DEB", "OBJECT_ID": "1993-036EH", "EPOCH": "2025-12-08T15:04:29.461728", "MEAN_MOTION": 14.47393927, "ECCENTRICITY": 0.00612601, "INCLINATION": 73.9261, "RA_OF_ASC_NODE": 60.306, "ARG_OF_PERICENTER": 355.3115, "MEAN_ANOMALY": 4.746, "EPHEMERIS_TYPE": 0, "CLASSIFICATION_TYPE": "U", "NORAD_CAT_ID": 33928, "ELEMENT_SET_NO": 999, "REV_AT_EPOCH": 88585, "BSTAR": 0.00047191475, "MEAN_MOTION_DOT": 1.743e-05, "MEAN_MOTION_DDOT": 0}, "tle": {"line1": "1 33928U 93036EH  25342.62811877  .00001743  00000+0  47191-3 0  9991", "line2": "2 33928  73.9261  60.3060 0061260 355.3115   4.7460 14.47393927885852"}}, "geometry": {"type": "Point", "coordinates": [45.73039706477714, -40.136871359910295]}}, {"type": "Feature", "properties": {"norad_id": 33932, "name": "COSMOS 2251 DEB", "group": "cosmos-2251-debris", "lat": -33.997503938039294, "lon": 154.13846889455078, "alt_km": 793.4649038915632, "timestamp": "2025-12-08T21:31:05.059534+00:00", "meta": {"OBJECT_NAME": "COSMOS 2251 DEB", "OBJECT_ID": "1993-036EM", "EPOCH": "2025-12-08T08:50:22.543008", "MEAN_MOTION": 14.38738364, "ECCENTRICITY": 0.00350852, "INCLINATION": 74.0346, "RA_OF_ASC_NODE": 323.9798, "ARG_OF_PERICENTER": 41.3813, "MEAN_ANOMALY": 318.9989, "EPHEMERIS_TYPE": 0, "CLASSIFICATION_TYPE": "U", "NORAD_CAT_ID": 33932, "ELEMENT_SET_NO": 999, "REV_AT_EPOCH": 87935, "BSTAR": 0.00084668797, "MEAN_MOTION_DOT": 2.593e-05, "MEAN_MOTION_DDOT": 0}, "tle": {"line1": "1 33932U 93036EM  25342.36831647  .00002593  00000+0  84669-3 0  9999", "line2": "2 33932  74.0346 323.9798 0035085  41.3813 318.9989 14.38738364879354"}}, "geometry": {"type": "Point", "coordinates": [154.13846889455078, -33.997503938039294]}}, {"type": "Feature", "properties": {"norad_id": 33933, "name": "COSMOS 2251 DEB", "group": "cosmos-2251-debris", "lat": 40.576974700922364, "lon": -126.99863811199619, "alt_km": 751.4467673398531, "timestamp": "2025-12-08T21:31:05.059544+00:00", "meta": {"OBJECT_NAME": "COSMOS 2251 DEB", "OBJECT_ID": "1993-036EN", "EPOCH": "2025-12-08T14:11:12.541632", "MEAN_MOTION": 14.3347944, "ECCENTRICITY": 0.00707923, "INCLINATION": 74.0894, "RA_OF_ASC_NODE": 67.6973, "ARG_OF_PERICENTER": 77.3497, "MEAN_ANOMALY": 283.5558, "EPHEMERIS_TYPE": 0, "CLASSIFICATION_TYPE": "U", "NORAD_CAT_ID": 33933, "ELEMENT_SET_NO": 999, "REV_AT_EPOCH": 87725, "BSTAR": 0.00056284466, "MEAN_MOTION_DOT": 1.575e-05, "MEAN_MOTION_DDOT": 0}, "tle": {"line1": "1 33933U 93036EN  25342.59111738  .00001575  00000+0  56284-3 0  9998", "line2": "2 33933  74.0894  67.6973 0070792  77.3497 283.5558 14.33479440877259"}}, "geometry": {"type": "Point", "coordinates": [-126.99863811199619, 40.576974700922364]}}, {"type": "Feature", "properties": {"norad_id": 33934, "name": "COSMOS 2251 DEB", "group": "cosmos-2251-debris", "lat": -70.93894613830793, "lon": -16.1776944897589, "alt_km": 693.2780244540709, "timestamp": "2025-12-08T21:31:05.059554+00:00", "meta": {"OBJECT_NAME": "COSMOS 2251 DEB", "OBJECT_ID": "1993-036EP", "EPOCH": "2025-12-08T15:23:44.573568", "MEAN_MOTION": 14.5905098, "ECCENTRICITY": 0.00158092, "INCLINATION": 74.0385, "RA_OF_ASC_NODE": 108.3797, "ARG_OF_PERICENTER": 232.0437, "MEAN_ANOMALY": 127.9301, "EPHEMERIS_TYPE": 0, "CLASSIFICATION_TYPE": "U", "NORAD_CAT_ID": 33934, "ELEMENT_SET_NO": 999, "REV_AT_EPOCH": 88679, "BSTAR": 0.0016051279, "MEAN_MOTION_DOT": 7.537e-05, "MEAN_MOTION_DDOT": 0}, "tle": {"line1": "1 33934U 93036EP  25342.64148812  .00007537  00000+0  16051-2 0  9999", "line2": "2 33934  74.0385 108.3797 0015809 232.0437 127.9301 14.59050980886792"}}, "geometry": {"type": "Point", "coordinates": [-16.1776944897589, -70.93894613830793]}}, {"type": "Feature", "properties": {"norad_id": 33936, "name": "COSMOS 2251 DEB", "group": "cosmos-2251-debris", "lat": 8.540742725757932, "lon": -137.63721537045126, "alt_km": 676.818950213662, "timestamp": "2025-12-08T21:31:05.059564+00:00", "meta": {"OBJECT_NAME": "COSMOS 2251 DEB", "OBJECT_ID": "1993-036ER", "EPOCH": "2025-12-08T14:09:33.571296", "MEAN_MOTION": 14.60229663, "ECCENTRICITY": 0.00278287, "INCLINATION": 74.0188, "RA_OF_ASC_NODE": 45.4151, "ARG_OF_PERICENTER": 201.6236, "MEAN_ANOMALY": 158.3757, "EPHEMERIS_TYPE": 0, "CLASSIFICATION_TYPE": "U", "NORAD_CAT_ID": 33936, "ELEMENT_SET_NO": 999, "REV_AT_EPOCH": 88829, "BSTAR": 0.0011615683, "MEAN_MOTION_DOT": 5.607e-05, "MEAN_MOTION_DDOT": 0}, "tle": {"line1": "1 33936U 93036ER  25342.58997189  .00005607  00000+0  11616-2 0  9991", "line2": "2 33936  74.0188  45.4151 0027828 201.6236 158.3757 14.60229663888291"}}, "geometry": {"type": "Point", "coordinates": [-137.63721537045126, 8.540742725757932]}}, {"type": "Feature", "properties": {"norad_id": 33938, "name": "COSMOS 2251 DEB", "group": "cosmos-2251-debris", "lat": -29.56274507333199, "lon": 43.690221023208935, "alt_km": 740.903167040381, "timestamp": "2025-12-08T21:31:05.059575+00:00", "meta": {"OBJECT_NAME": "COSMOS 2251 DEB", "OBJECT_ID": "1993-036ET", "EPOCH": "2025-12-08T15:43:11.580960", "MEAN_MOTION": 14.46775692, "ECCENTRICITY": 0.00168509, "INCLINATION": 74.0451, "RA_OF_ASC_NODE": 214.8024, "ARG_OF_PERICENTER": 297.2857, "MEAN_ANOMALY": 95.8866, "EPHEMERIS_TYPE": 0, "CLASSIFICATION_TYPE": "U", "NORAD_CAT_ID": 33938, "ELEMENT_SET_NO": 999, "REV_AT_EPOCH": 88341, "BSTAR": 0.00077331612, "MEAN_MOTION_DOT": 2.778e-05, "MEAN_MOTION_DDOT": 0}, "tle": {"line1": "1 33938U 93036ET  25342.65499515  .00002778  00000+0  77332-3 0  9995", "line2": "2 33938  74.0451 214.8024 0016850 297.2857  95.8866 14.46775692883417"}}, "geometry": {"type": "Point", "coordinates": [43.690221023208935, -29.56274507333199]}}]}